[{"id": "5dd971bb-f385-4468-8534-6fb3361d6f63", "latitude": "10.5", "longitude": "23.5", "temperature": "38", "pressure": "1,006", "localTime": "Mon Nov 27 2023 10:57:42 GMT-0500 (hora est\u00e1ndar de Colombia)", "julianTime": "1701100662", "utcTime": "10:57:50 AM", "altitude": "480.52", "elevation": "-60.5", "TLE": {"Norad_Id": 56205, "International_Classification": "Unclassified", "International_Designation": "23054AD", "Epoch_Time_(ISO)": "2023-11-27T02:50:35Z", "First_Derivative_Mean_Motion": 0.00018178000000000004, "Second_Derivative_Mean_Motion": 0.0, "Inclination": 97.38820000000001, "Right_Ascension_of_the_Ascending_Node": 224.4802, "Eccentricity": 0.0014266, "Argument_of_Perigee": 146.2165, "Mean_Anomaly": 213.9986, "Mean_Motion": 15.281353, "Revolution_Number_at_Epoch": 3503}}, {"id": "163a971b-9d5d-4a43-a003-dda5f4d7fa2f", "latitude": "57.4584", "longitude": "20.1454", "temperature": "0", "pressure": "1,005", "localTime": "Mon Nov 27 2023 11:48:34 GMT-0500 (hora est\u00e1ndar de Colombia)", "julianTime": "1701103714", "utcTime": "11:48:44 AM", "altitude": "505.93", "elevation": "-17.3", "TLE": {"Norad_Id": 56205, "International_Classification": "Unclassified", "International_Designation": "23054AD", "Epoch_Time_(ISO)": "2023-11-27T02:50:35Z", "First_Derivative_Mean_Motion": 0.00018178000000000004, "Second_Derivative_Mean_Motion": 0.0, "Inclination": 97.38820000000001, "Right_Ascension_of_the_Ascending_Node": 224.4802, "Eccentricity": 0.0014266, "Argument_of_Perigee": 146.2165, "Mean_Anomaly": 213.9986, "Mean_Motion": 15.281353, "Revolution_Number_at_Epoch": 3503}}, {"id": "0a56c263-3bde-41ac-9193-cbfcff59092d", "latitude": "58.2344", "longitude": "5.244", "temperature": "2", "pressure": "1,013", "localTime": "Mon Nov 27 2023 13:59:54 GMT-0500 (hora est\u00e1ndar de Colombia)", "julianTime": "1701111594", "utcTime": "2:00:02 PM", "altitude": "486.90", "elevation": "-47.6", "TLE": {"Norad_Id": 56205, "International_Classification": "Unclassified", "International_Designation": "23054AD", "Epoch_Time_(ISO)": "2023-11-27T02:50:35Z", "First_Derivative_Mean_Motion": 0.00018178000000000004, "Second_Derivative_Mean_Motion": 0.0, "Inclination": 97.38820000000001, "Right_Ascension_of_the_Ascending_Node": 224.4802, "Eccentricity": 0.0014266, "Argument_of_Perigee": 146.2165, "Mean_Anomaly": 213.9986, "Mean_Motion": 15.281353, "Revolution_Number_at_Epoch": 3503}}, {"id": "e2d441b4-0119-4b91-97f7-02bcd89ea6c4", "latitude": "15.2", "longitude": "20.85457", "temperature": "27", "pressure": "1,012", "localTime": "Mon Nov 27 2023 16:02:53 GMT-0500 (hora est\u00e1ndar de Colombia)", "julianTime": "1701118973", "utcTime": "4:03:01 PM", "altitude": "490.80", "elevation": "-45.1", "TLE": {"Norad_Id": 56205, "International_Classification": "Unclassified", "International_Designation": "23054AD", "Epoch_Time_(ISO)": "2023-11-27T02:50:35Z", "First_Derivative_Mean_Motion": 0.00018178000000000004, "Second_Derivative_Mean_Motion": 0.0, "Inclination": 97.38820000000001, "Right_Ascension_of_the_Ascending_Node": 224.4802, "Eccentricity": 0.0014266, "Argument_of_Perigee": 146.2165, "Mean_Anomaly": 213.9986, "Mean_Motion": 15.281353, "Revolution_Number_at_Epoch": 3503}}, {"id": "d88c02fa-8878-427e-a181-bfd14abb12f9", "latitude": "15.2", "longitude": "20.85457", "temperature": "27", "pressure": "1,012", "localTime": "Mon Nov 27 2023 16:05:24 GMT-0500 (hora est\u00e1ndar de Colombia)", "julianTime": "1701119124", "utcTime": "4:05:33 PM", "altitude": "496.20", "elevation": "-44.3", "TLE": {"Norad_Id": 56205, "International_Classification": "Unclassified", "International_Designation": "23054AD", "Epoch_Time_(ISO)": "2023-11-27T02:50:35Z", "First_Derivative_Mean_Motion": 0.00018178000000000004, "Second_Derivative_Mean_Motion": 0.0, "Inclination": 97.38820000000001, "Right_Ascension_of_the_Ascending_Node": 224.4802, "Eccentricity": 0.0014266, "Argument_of_Perigee": 146.2165, "Mean_Anomaly": 213.9986, "Mean_Motion": 15.281353, "Revolution_Number_at_Epoch": 3503}}, {"id": "9a042d07-316d-4210-a27c-cab28506cb6c", "latitude": "15.2", "longitude": "20.85457", "temperature": "27", "pressure": "1,012", "localTime": "Mon Nov 27 2023 16:15:44 GMT-0500 (hora est\u00e1ndar de Colombia)", "julianTime": "1701119744", "utcTime": "4:15:55 PM", "altitude": "513.89", "elevation": "-41.7", "TLE": {"Norad_Id": 56205, "International_Classification": "Unclassified", "International_Designation": "23054AD", "Epoch_Time_(ISO)": "2023-11-27T02:50:35Z", "First_Derivative_Mean_Motion": 0.00018178000000000004, "Second_Derivative_Mean_Motion": 0.0, "Inclination": 97.38820000000001, "Right_Ascension_of_the_Ascending_Node": 224.4802, "Eccentricity": 0.0014266, "Argument_of_Perigee": 146.2165, "Mean_Anomaly": 213.9986, "Mean_Motion": 15.281353, "Revolution_Number_at_Epoch": 3503}}, {"id": "bd8982ad-b79a-47bf-8f02-b66a0c93ba4d", "latitude": "4.25", "longitude": "39.2", "temperature": "18", "pressure": "1,015", "localTime": "Mon Nov 27 2023 16:43:14 GMT-0500 (hora est\u00e1ndar de Colombia)", "julianTime": "1701121394", "utcTime": "4:43:23 PM", "altitude": "490.85", "elevation": "-44.7", "TLE": {"Norad_Id": 56205, "International_Classification": "Unclassified", "International_Designation": "23054AD", "Epoch_Time_(ISO)": "2023-11-27T02:50:35Z", "First_Derivative_Mean_Motion": 0.00018178000000000004, "Second_Derivative_Mean_Motion": 0.0, "Inclination": 97.38820000000001, "Right_Ascension_of_the_Ascending_Node": 224.4802, "Eccentricity": 0.0014266, "Argument_of_Perigee": 146.2165, "Mean_Anomaly": 213.9986, "Mean_Motion": 15.281353, "Revolution_Number_at_Epoch": 3503}}]